[{"OBJECT_NAME":"STARLINK-32893","OBJECT_ID":"2025-024U","EPOCH":"2026-03-09T03:00:34.204896","MEAN_MOTION":15.27622987,"ECCENTRICITY":0.00032194,"INCLINATION":43,"RA_OF_ASC_NODE":328.2049,"ARG_OF_PERICENTER":247.3227,"MEAN_ANOMALY":112.7284,"EPHEMERIS_TYPE":0,"CLASSIFICATION_TYPE":"U","NORAD_CAT_ID":62897,"ELEMENT_SET_NO":999,"REV_AT_EPOCH":6218,"BSTAR":0.0015195816,"MEAN_MOTION_DOT":0.0004185,"MEAN_MOTION_DDOT":0},{"OBJECT_NAME":"CZ-2D DEB","OBJECT_ID":"2010-027G","EPOCH":"2026-03-07T07:54:25.300800","MEAN_MOTION":15.18267572,"ECCENTRICITY":0.0071051,"INCLINATION":97.484,"RA_OF_ASC_NODE":105.3106,"ARG_OF_PERICENTER":258.5099,"MEAN_ANOMALY":100.8151,"EPHEMERIS_TYPE":0,"CLASSIFICATION_TYPE":"U","NORAD_CAT_ID":38302,"ELEMENT_SET_NO":999,"REV_AT_EPOCH":83107,"BSTAR":0.0021438,"MEAN_MOTION_DOT":0.00047105,"MEAN_MOTION_DDOT":0}]
